[Satellite]
VERSION=1.1
NAME=NUDT-PHONESAT
NICKNAME=NUDT-PHONESAT
TLE1=1 40900U 15049B   20158.22282500  .00002260  00000-0  95865-4 0  9996
TLE2=2 40900  97.4300 169.2750 0013374  30.5514  33.9030 15.24081770261488
STATUS=0
